IRIDIUM 63              
1 25286U 98021B   25353.93998078  .00000307  00000+0  97413-4 0  9991
2 25286  86.3980   4.1925 0002359  86.5697 273.5770 14.36741104450517
IRIDIUM 69              
1 25319U 98026A   25353.51905058  .00000335  00000+0  97483-4 0  9991
2 25319  86.3973  17.0722 0004365 112.9671 247.1990 14.41222837449757
IRIDIUM 71              
1 25320U 98026B   25353.50535470  .00000248  00000+0  70617-4 0  9992
2 25320  86.3972  11.7500 0002647 142.1752 217.9634 14.41321841450284
IRIDIUM 73              
1 25344U 98032C   25353.94602072  .00000464  00000+0  10989-3 0  9991
2 25344  86.4409 327.9258 0003014  87.8476 272.3075 14.51998776457510
IRIDIUM 82              
1 25467U 98051A   25353.50498795  .00033496  00000+0  61452-3 0  9997
2 25467  86.3599  17.7013 0058677 308.2472  51.3512 15.47169390452445
